GLOBALSTAR M024 [-]     
1 25883U 99043A   24109.57217975 -.00000069  00000+0 -15654-3 0  9990
2 25883  52.0015 258.6926 0002252 125.6823 314.0331 11.10161218 67704
GLOBALSTAR M027 [-]     
1 25884U 99043B   24108.99647631 -.00000061  00000+0  97170-4 0  9997
2 25884  52.0231 325.9316 0021734  26.4117 333.7779 11.04367961 94267
GLOBALSTAR M054 [-]     
1 25885U 99043C   24109.46063056 -.00000124  00000+0 -13332-2 0  9991
2 25885  52.0114 163.4692 0004939 168.4204 293.4975 11.39202435 70640
GLOBALSTAR M053 [-]     
1 25886U 99043D   24109.32133059 -.00000056  00000+0  38152-3 0  9999
2 25886  51.9967  87.3230 0003411  77.7950  70.9347 11.27654499 71517
GLOBALSTAR M058 [-]     
1 25907U 99049A   24109.42135635 -.00000110  00000+0 -35079-3 0  9999
2 25907  51.9923 163.3897 0002614 179.6623 180.4214 11.93176082490830
GLOBALSTAR M050 [-]     
1 25908U 99049B   24109.46678808 -.00000080  00000+0  90811-4 0  9999
2 25908  51.9979 202.6742 0008815 262.6235 180.1345 12.07431893 96888
GLOBALSTAR M033 [-]     
1 25909U 99049C   24109.40098442 -.00000087  00000+0  42313-4 0  9995
2 25909  51.9890 104.0275 0011728 116.3641 243.8411 12.20269770483889
GLOBALSTAR M055 [-]     
1 25910U 99049D   24109.37580304 -.00000052  00000+0  35865-3 0  9991
2 25910  51.9991 135.5197 0006856 329.7773  30.2682 12.29399278116031
